{
    "links": {
        "self": "http://www.neowsapp.com/rest/v1/neo/3337999?api_key=iIulBulltgU6a56xZRHN4H3l9WmuAYTsLGpBGhQ2"
    },
    "id": "3337999",
    "neo_reference_id": "3337999",
    "name": "(2006 PF1)",
    "designation": "2006 PF1",
    "nasa_jpl_url": "http://ssd.jpl.nasa.gov/sbdb.cgi?sstr=3337999",
    "absolute_magnitude_h": 19.5,
    "estimated_diameter": {
        "kilometers": {
            "estimated_diameter_min": 0.3346223745,
            "estimated_diameter_max": 0.7482383761
        },
        "meters": {
            "estimated_diameter_min": 334.6223744549,
            "estimated_diameter_max": 748.2383760735
        },
        "miles": {
            "estimated_diameter_min": 0.2079246394,
            "estimated_diameter_max": 0.464933628
        },
        "feet": {
            "estimated_diameter_min": 1097.8424710066,
            "estimated_diameter_max": 2454.8503937571
        }
    },
    "is_potentially_hazardous_asteroid": false,
    "close_approach_data": [
        {
            "close_approach_date": "2006-08-29",
            "close_approach_date_full": "2006-Aug-29 07:05",
            "epoch_date_close_approach": 1156835100000,
            "relative_velocity": {
                "kilometers_per_second": "30.4658088901",
                "kilometers_per_hour": "109676.912004198",
                "miles_per_hour": "68148.967906164"
            },
            "miss_distance": {
                "astronomical": "0.1230520832",
                "lunar": "47.8672603648",
                "kilometers": "18408329.545782784",
                "miles": "11438405.5738350592"
            },
            "orbiting_body": "Earth"
        },
        {
            "close_approach_date": "2008-05-26",
            "close_approach_date_full": "2008-May-26 12:09",
            "epoch_date_close_approach": 1211803740000,
            "relative_velocity": {
                "kilometers_per_second": "8.2190664856",
                "kilometers_per_hour": "29588.6393481771",
                "miles_per_hour": "18385.2298216493"
            },
            "miss_distance": {
                "astronomical": "1.1946770773",
                "lunar": "464.7293830697",
                "kilometers": "178721146.101905351",
                "miles": "111052170.6301458038"
            },
            "orbiting_body": "Juptr"
        },
        {
            "close_approach_date": "2094-08-27",
            "close_approach_date_full": "2094-Aug-27 20:05",
            "epoch_date_close_approach": 3933777900000,
            "relative_velocity": {
                "kilometers_per_second": "32.3046218854",
                "kilometers_per_hour": "116296.6387876117",
                "miles_per_hour": "72262.208695558"
            },
            "miss_distance": {
                "astronomical": "0.1560034723",
                "lunar": "60.6853507247",
                "kilometers": "23337787.168684001",
                "miles": "14501428.5064451738"
            },
            "orbiting_body": "Earth"
        }
    ],
    "orbital_data": {
        "orbit_id": "11",
        "orbit_determination_date": "2017-04-06 09:08:18",
        "first_observation_date": "2006-08-15",
        "last_observation_date": "2006-08-26",
        "data_arc_in_days": 11,
        "observations_used": 40,
        "orbit_uncertainty": "8",
        "minimum_orbit_intersection": ".118163",
        "jupiter_tisserand_invariant": "2.973",
        "epoch_osculation": "2453966.5",
        "eccentricity": ".8784586055228467",
        "semi_major_axis": "2.194345669489871",
        "inclination": "14.04963036267238",
        "ascending_node_longitude": "126.5215871721463",
        "orbital_period": "1187.287757585007",
        "perihelion_distance": ".2667038326347015",
        "perihelion_argument": "333.8903807064609",
        "aphelion_distance": "4.121987506345041",
        "perihelion_time": "2454018.815045721238",
        "mean_anomaly": "344.1374457545544",
        "mean_motion": ".303212087971205",
        "equinox": "J2000",
        "orbit_class": {
            "orbit_class_type": "APO",
            "orbit_class_description": "Near-Earth asteroid orbits which cross the Earth’s orbit similar to that of 1862 Apollo",
            "orbit_class_range": "a (semi-major axis) > 1.0 AU; q (perihelion) < 1.017 AU"
        }
    },
    "is_sentry_object": false
}